[{"OBJECT_NAME":"STARLINK-32681","OBJECT_ID":"2025-003V","EPOCH":"2026-03-09T21:39:56.873376","MEAN_MOTION":15.2761835,"ECCENTRICITY":0.00019782,"INCLINATION":43.0017,"RA_OF_ASC_NODE":269.2136,"ARG_OF_PERICENTER":273.7145,"MEAN_ANOMALY":86.3481,"EPHEMERIS_TYPE":0,"CLASSIFICATION_TYPE":"U","NORAD_CAT_ID":62506,"ELEMENT_SET_NO":999,"REV_AT_EPOCH":6691,"BSTAR":0.001220031,"MEAN_MOTION_DOT":0.00033503,"MEAN_MOTION_DDOT":0},{"OBJECT_NAME":"TEVEL2-2","OBJECT_ID":"2025-052K","EPOCH":"2026-03-09T15:33:48.895776","MEAN_MOTION":15.30343745,"ECCENTRICITY":0.0004693,"INCLINATION":97.3987,"RA_OF_ASC_NODE":324.77,"ARG_OF_PERICENTER":105.793,"MEAN_ANOMALY":254.3828,"EPHEMERIS_TYPE":0,"CLASSIFICATION_TYPE":"U","NORAD_CAT_ID":63219,"ELEMENT_SET_NO":999,"REV_AT_EPOCH":5485,"BSTAR":0.00069428,"MEAN_MOTION_DOT":0.00020339,"MEAN_MOTION_DDOT":0}]
